STARLINK-36974          
1 68272U 26055L   26129.16668980  .00059216  00000+0  17526-2 0  9992
2 68272  53.1599  40.0410 0001471  76.5257  45.2484 15.34352361  6010
STARLINK-37019          
1 68273U 26055M   26129.06762698  .00005558  00000+0  13699-3 0  9991
2 68273  53.1599  38.9241 0001221  74.7474 285.3667 15.42177744  9172
STARLINK-37129          
1 68274U 26055N   26128.98422140 -.00005919  00000+0 -12666-3 0  9993
2 68274  53.1585  39.1102 0001076  65.7577 294.3541 15.42160208  9166
STARLINK-37123          
1 68275U 26055P   26128.98545475 -.00004802  00000+0 -10093-3 0  9993
2 68275  53.1572  39.1200 0001251  44.5296 315.5810 15.42168093  9165
STARLINK-37125          
1 68276U 26055Q   26129.04229906  .00000814  00000+0  28156-4 0  9997
2 68276  53.1588  38.7595 0001232  65.7828 294.3307 15.42151798  9170
STARLINK-36989          
1 68277U 26055R   26129.00750505  .00037027  00000+0  11002-2 0  9994
2 68277  53.1608  38.5256 0000736  60.0381 300.0694 15.34439072  9175
STARLINK-36982          
1 68278U 26055S   26129.08787590  .00019316  00000+0  45295-3 0  9990
2 68278  53.1594  39.0544 0000949 102.7044 257.4068 15.42110615  9170
STARLINK-36934          
1 68279U 26055T   26129.20859881  .00029136  00000+0  67603-3 0  9996
2 68279  53.1595  38.3827 0001066  73.8549 286.2574 15.42177792  9190
STARLINK-37070          
1 68280U 26055U   26129.04318696  .00017618  00000+0  53127-3 0  9992
2 68280  53.1583  38.0290 0000501  71.7739 288.3318 15.34402742  9186
STARLINK-37134          
1 68281U 26055V   26129.05243459  .00021928  00000+0  73110-3 0  9991
2 68281  53.1569  39.5340 0000696  55.8375 304.2692 15.31039855  9166
STARLINK-37160          
1 68282U 26055W   26129.06212532  .00016225  00000+0  49036-3 0  9995
2 68282  53.1593  38.1538 0001295  74.8033 285.3112 15.34395175  9187
STARLINK-37124          
1 68283U 26055X   26129.04806639  .00010956  00000+0  38140-3 0  9990
2 68283  53.1572  39.5017 0001277  79.8923 280.2222 15.30206934  9169
STARLINK-37159          
1 68284U 26055Y   26129.07322720  .00019032  00000+0  57298-3 0  9997
2 68284  53.1601  40.4004 0001376  75.4962 284.6193 15.34399570  9152
STARLINK-36725          
1 68285U 26055Z   26129.04279042  .00003713  00000+0  13740-3 0  9996
2 68285  53.1586  39.4737 0001154  92.2749 267.8383 15.30205622  9165
STARLINK-36998          
1 68286U 26055AA  26129.05581325  .00018093  00000+0  54532-3 0  9999
2 68286  53.1595  38.1121 0001400  62.1814 297.9331 15.34399972  9198
STARLINK-37165          
1 68287U 26055AB  26129.16668980  .00057584  00000+0  17049-2 0  9994
2 68287  53.1586  37.5260 0000626 108.8688 178.9435 15.34352352  6014
STARLINK-37016          
1 68288U 26055AC  26129.21415152  .00040192  00000+0  92813-3 0  9992
2 68288  53.1588  38.4190 0001110  90.3852 269.7281 15.42162292  9197
STARLINK-37010          
1 68289U 26055AD  26129.02222437 -.00007096  00000+0 -19922-3 0  9992
2 68289  53.1598  38.6181 0001169  92.2008 267.9128 15.34378846  9172
STARLINK-37151          
1 68290U 26055AE  26129.01739769  .00041687  00000+0  96294-3 0  9993
2 68290  53.1603  39.3210 0001190  87.9153 272.1989 15.42136976  9165
STRIX-6                 
1 68291U 26056A   26128.42306820  .00002100  00000+0  18810-3 0  9992
2 68291  50.2816 177.7242 0016049  91.1134 269.1654 14.99920680  7300
STARLINK-37107          
1 68294U 26057A   26128.85523825  .00347911  00000+0  22286-2 0  9992
2 68294  97.2868 254.2541 0002444 292.9714  67.1293 15.75304418  7757
STARLINK-37147          
1 68295U 26057B   26129.16668980  .00028844  00000+0  19388-3 0  9991
2 68295  97.2848 254.5705 0001502  83.0447 219.9664 15.75155560  6005
STARLINK-37142          
1 68296U 26057C   26129.10195661  .00171551  00000+0  11281-2 0  9994
2 68296  97.2870 254.5298 0002777  84.2822 275.8759 15.75187238  7793
STARLINK-37115          
1 68297U 26057D   26129.08571453  .00162208  00000+0  10662-2 0  9990
2 68297  97.2862 254.5499 0001006  92.0267 268.1113 15.75226913  7795
STARLINK-36355          
1 68298U 26057E   26128.89125358  .00239888  00000+0  15685-2 0  9997
2 68298  97.2844 254.3526 0002223  74.8440 285.3070 15.75128542  7767
STARLINK-37118          
1 68299U 26057F   26129.08783918  .00176255  00000+0  11571-2 0  9990
2 68299  97.2867 254.5466 0002369  86.7196 273.4341 15.75212471  7796
STARLINK-36875          
1 68300U 26057G   26129.20289292  .00176154  00000+0  11568-2 0  9997
2 68300  97.2849 254.6940 0001539 107.6327 252.5107 15.75207309  7819
STARLINK-37099          
1 68301U 26057H   26129.07795527  .00245793  00000+0  15988-2 0  9992
2 68301  97.2850 254.5586 0002060  81.4013 278.7485 15.75232552  7792
STARLINK-37007          
1 68302U 26057J   26129.12665884  .00254298  00000+0  16515-2 0  9998
2 68302  97.2847 254.6468 0001534 115.4006 244.7418 15.75246142  7805
STARLINK-36300          
1 68303U 26057K   26128.87043874  .00256172  00000+0  16682-2 0  9997
2 68303  97.2849 254.3825 0004455  79.3442 280.8324 15.75170496  7769
