OBJECT_NAME,OBJECT_ID,EPOCH,MEAN_MOTION,ECCENTRICITY,INCLINATION,RA_OF_ASC_NODE,ARG_OF_PERICENTER,MEAN_ANOMALY,EPHEMERIS_TYPE,CLASSIFICATION_TYPE,NORAD_CAT_ID,ELEMENT_SET_NO,REV_AT_EPOCH,BSTAR,MEAN_MOTION_DOT,MEAN_MOTION_DDOT
STARLINK-36974,2026-055L,2026-05-09T04:00:01.998720,15.34352361,.0001471,53.1599,40.0410,76.5257,45.2484,0,U,68272,999,601,.17526E-2,.59216E-3,0
STARLINK-37019,2026-055M,2026-05-09T01:37:22.971072,15.42177744,.0001221,53.1599,38.9241,74.7474,285.3667,0,U,68273,999,917,.13699E-3,.5558E-4,0
STARLINK-37129,2026-055N,2026-05-08T23:37:16.728960,15.42160208,.0001076,53.1585,39.1102,65.7577,294.3541,0,U,68274,999,916,-.12666E-3,-.5919E-4,0
STARLINK-37123,2026-055P,2026-05-08T23:39:03.290400,15.42168093,.0001251,53.1572,39.1200,44.5296,315.5810,0,U,68275,999,916,-.10093E-3,-.4802E-4,0
STARLINK-37125,2026-055Q,2026-05-09T01:00:54.638784,15.42151798,.0001232,53.1588,38.7595,65.7828,294.3307,0,U,68276,999,917,.28156E-4,.814E-5,0
STARLINK-36989,2026-055R,2026-05-09T00:10:48.436320,15.34439072,.0000736,53.1608,38.5256,60.0381,300.0694,0,U,68277,999,917,.11002E-2,.37027E-3,0
STARLINK-36982,2026-055S,2026-05-09T02:06:32.477760,15.42110615,.0000949,53.1594,39.0544,102.7044,257.4068,0,U,68278,999,917,.45295E-3,.19316E-3,0
STARLINK-36934,2026-055T,2026-05-09T05:00:22.937184,15.42177792,.0001066,53.1595,38.3827,73.8549,286.2574,0,U,68279,999,919,.67603E-3,.29136E-3,0
STARLINK-37070,2026-055U,2026-05-09T01:02:11.353344,15.34402742,.0000501,53.1583,38.0290,71.7739,288.3318,0,U,68280,999,918,.53127E-3,.17618E-3,0
STARLINK-37134,2026-055V,2026-05-09T01:15:30.348576,15.31039855,.0000696,53.1569,39.5340,55.8375,304.2692,0,U,68281,999,916,.7311E-3,.21928E-3,0
STARLINK-37160,2026-055W,2026-05-09T01:29:27.627648,15.34395175,.0001295,53.1593,38.1538,74.8033,285.3112,0,U,68282,999,918,.49036E-3,.16225E-3,0
STARLINK-37124,2026-055X,2026-05-09T01:09:12.936096,15.30206934,.0001277,53.1572,39.5017,79.8923,280.2222,0,U,68283,999,916,.3814E-3,.10956E-3,0
STARLINK-37159,2026-055Y,2026-05-09T01:45:26.830080,15.34399570,.0001376,53.1601,40.4004,75.4962,284.6193,0,U,68284,999,915,.57298E-3,.19032E-3,0
STARLINK-36725,2026-055Z,2026-05-09T01:01:37.092288,15.30205622,.0001154,53.1586,39.4737,92.2749,267.8383,0,U,68285,999,916,.1374E-3,.3713E-4,0
STARLINK-36998,2026-055AA,2026-05-09T01:20:22.264800,15.34399972,.00014,53.1595,38.1121,62.1814,297.9331,0,U,68286,999,919,.54532E-3,.18093E-3,0
STARLINK-37165,2026-055AB,2026-05-09T04:00:01.998720,15.34352352,.0000626,53.1586,37.5260,108.8688,178.9435,0,U,68287,999,601,.17049E-2,.57584E-3,0
STARLINK-37016,2026-055AC,2026-05-09T05:08:22.691328,15.42162292,.000111,53.1588,38.4190,90.3852,269.7281,0,U,68288,999,919,.92813E-3,.40192E-3,0
STARLINK-37010,2026-055AD,2026-05-09T00:32:00.185568,15.34378846,.0001169,53.1598,38.6181,92.2008,267.9128,0,U,68289,999,917,-.19922E-3,-.7096E-4,0
STARLINK-37151,2026-055AE,2026-05-09T00:25:03.160416,15.42136976,.000119,53.1603,39.3210,87.9153,272.1989,0,U,68290,999,916,.96294E-3,.41687E-3,0
STRIX-6,2026-056A,2026-05-08T10:09:13.092480,14.99920680,.00160499,50.2816,177.7242,91.1134,269.1654,0,U,68291,999,730,.18809586E-3,.21E-4,0
STARLINK-37107,2026-057A,2026-05-08T20:31:32.584800,15.75304418,.00024444,97.2868,254.2541,292.9714,67.1293,0,U,68294,999,775,.22286283E-2,.347911E-2,0
STARLINK-37147,2026-057B,2026-05-09T04:00:01.998720,15.75155560,.0001502,97.2848,254.5705,83.0447,219.9664,0,U,68295,999,600,.19388E-3,.28844E-3,0
STARLINK-37142,2026-057C,2026-05-09T02:26:49.051104,15.75187238,.0002777,97.2870,254.5298,84.2822,275.8759,0,U,68296,999,779,.11281E-2,.171551E-2,0
STARLINK-37115,2026-057D,2026-05-09T02:03:25.735392,15.75226913,.0001006,97.2862,254.5499,92.0267,268.1113,0,U,68297,999,779,.10662E-2,.162208E-2,0
STARLINK-36355,2026-057E,2026-05-08T21:23:24.309312,15.75128542,.0002223,97.2844,254.3526,74.8440,285.3070,0,U,68298,999,776,.15685E-2,.239888E-2,0
STARLINK-37118,2026-057F,2026-05-09T02:06:29.305152,15.75212471,.0002369,97.2867,254.5466,86.7196,273.4341,0,U,68299,999,779,.11571E-2,.176255E-2,0
STARLINK-36875,2026-057G,2026-05-09T04:52:09.948288,15.75207309,.0001539,97.2849,254.6940,107.6327,252.5107,0,U,68300,999,781,.11568E-2,.176154E-2,0
STARLINK-37099,2026-057H,2026-05-09T01:52:15.335328,15.75232552,.000206,97.2850,254.5586,81.4013,278.7485,0,U,68301,999,779,.15988E-2,.245793E-2,0
STARLINK-37007,2026-057J,2026-05-09T03:02:23.323776,15.75246142,.0001534,97.2847,254.6468,115.4006,244.7418,0,U,68302,999,780,.16515E-2,.254298E-2,0
STARLINK-36300,2026-057K,2026-05-08T20:53:25.907136,15.75170496,.00044552,97.2849,254.3825,79.3442,280.8324,0,U,68303,999,776,.16682497E-2,.256172E-2,0
